#dV2023  1 21 10  0  0.00000000    1682       CTS   FIT  GFZ
## 2245 554400.00000000    30.00000000 59965 0.4166666666667
+    1   L64  0  0  0  0  0  0  0  0  0  0  0  0  0  0  0  0
+          0  0  0  0  0  0  0  0  0  0  0  0  0  0  0  0  0
+          0  0  0  0  0  0  0  0  0  0  0  0  0  0  0  0  0
+          0  0  0  0  0  0  0  0  0  0  0  0  0  0  0  0  0
+          0  0  0  0  0  0  0  0  0  0  0  0  0  0  0  0  0
++         0  0  0  0  0  0  0  0  0  0  0  0  0  0  0  0  0
++         0  0  0  0  0  0  0  0  0  0  0  0  0  0  0  0  0
++         0  0  0  0  0  0  0  0  0  0  0  0  0  0  0  0  0
++         0  0  0  0  0  0  0  0  0  0  0  0  0  0  0  0  0
++         0  0  0  0  0  0  0  0  0  0  0  0  0  0  0  0  0
%c L  cc GPS ccc cccc cccc cccc cccc ccccc ccccc ccccc ccccc
%c cc cc ccc ccc cccc cccc cccc cccc ccccc ccccc ccccc ccccc
%f  0.0000000  0.000000000  0.00000000000  0.000000000000000
%f  0.0000000  0.000000000  0.00000000000  0.000000000000000
%i    0    0    0    0      0      0      0      0         0
%i    0    0    0    0      0      0      0      0         0
/* CCCCCCCCCCCCCCCCCCCCCCCCCCCCCCCCCCCCCCCCCCCCCCCCCCCCCCCCCCCCCCCCCCCCCCCCCCCCC
/* C                             GFZ RSO-ORBIT                                 C
/* C DOI: https://doi.org/10.5880/GFZ_ORBIT/RSO/L64_G_v02                      C
/* C                                                                           C
/* C DORIS        RMS: not applicable                                          C
/* C GNSS-E Code  RMS: not applicable                                          C
/* C GNSS-E Phase RMS: not applicable                                          C
/* C GNSS-G Code  RMS:  53.696 [cm]   Obs.acc.:     14273 Obs.eli.:      1204  C
/* C GNSS-G Phase RMS:   4.756 [mm]   Obs.acc.:     14273 Obs.eli.:      1204  C
/* C SLR          RMS:   3.668 [cm]   Obs.acc.:        12 Obs.eli.:         0  C
/* C                                                                           C
/* CCCCCCCCCCCCCCCCCCCCCCCCCCCCCCCCCCCCCCCCCCCCCCCCCCCCCCCCCCCCCCCCCCCCCCCCCCCCC
*  2023  1 21 19 46 30.00000000
PL64   1772.834084  -1835.377329   6378.801126  13469.188919
VL64 -47798.901328  52007.150442  28157.836211 999999.999999
*  2023  1 21 19 47  0.00000000
PL64   1628.835079  -1678.063728   6459.737531  13469.647995
VL64 -48191.038219  52859.282031  25794.819225 999999.999999
*  2023  1 21 19 47 30.00000000
PL64   1483.744315  -1518.278022   6533.541655 999999.999999
VL64 -48526.717562  53655.030248  23403.416980 999999.999999
*  2023  1 21 19 48  0.00000000
PL64   1337.731343  -1356.191042   6600.132265  13470.566665
VL64 -48805.829936  54393.284380  20986.247933 999999.999999
*  2023  1 21 19 48 30.00000000
PL64   1190.965948  -1191.976860   6659.436021  13471.026312
VL64 -49028.331497  55072.995727  18545.958108 999999.999999
*  2023  1 21 19 49  0.00000000
PL64   1043.617946  -1025.812599   6711.387561  13471.486029
VL64 -49194.243564  55693.178506  16085.216755 999999.999999
*  2023  1 21 19 49 30.00000000
PL64    895.856993   -857.878242   6755.929560  13471.946043
VL64 -49303.651514  56252.910709  13606.714442 999999.999999
*  2023  1 21 19 50  0.00000000
PL64    747.852393   -688.356444   6793.012796  13472.405974
VL64 -49356.705322  56751.335695  11113.160617 999999.999999
*  2023  1 21 19 50 30.00000000
PL64    599.772903   -517.432328   6822.596196  13472.865764
VL64 -49353.619334  57187.662412   8607.279394 999999.999999
*  2023  1 21 19 51  0.00000000
PL64    451.786542   -345.293295   6844.646881  13473.325565
VL64 -49294.670199  57561.165879   6091.807171 999999.999999
*  2023  1 21 19 51 30.00000000
PL64    304.060409   -172.128816   6859.140195  13473.785200
VL64 -49180.196138  57871.189249   3569.491327 999999.999999
*  2023  1 21 19 52  0.00000000
PL64    156.760492      1.869771   6866.059740  13474.244831
VL64 -49010.597302  58117.145266   1043.087291 999999.999999
*  2023  1 21 19 52 30.00000000
PL64     10.051490    176.509469   6865.397391  13474.704176
VL64 -48786.335238  58298.516787  -1484.644651 999999.999999
*  2023  1 21 19 53  0.00000000
PL64   -135.903376    351.595838   6857.153307  13475.163474
VL64 -48507.932062  58414.857462  -4010.942281 999999.999999
*  2023  1 21 19 53 30.00000000
PL64   -280.942541    526.933206   6841.335933  13475.622476
VL64 -48175.969248  58465.792358  -6533.044299 999999.999999
*  2023  1 21 19 54  0.00000000
PL64   -424.906270    702.324882   6817.961995  13476.080831
VL64 -47791.086620  58451.018726  -9048.192797 999999.999999
*  2023  1 21 19 54 30.00000000
PL64   -567.636836    877.573377   6787.056482  13476.539583
VL64 -47353.981634  58370.306693 -11553.636087 999999.999999
*  2023  1 21 19 55  0.00000000
PL64   -708.978689   1052.480624   6748.652626  13476.998883
VL64 -46865.408239  58223.499535 -14046.631701 999999.999999
*  2023  1 21 19 55 30.00000000
PL64   -848.778624   1226.848194   6702.791871  13477.458375
VL64 -46326.175424  58010.513974 -16524.448737 999999.999999
*  2023  1 21 19 56  0.00000000
PL64   -986.885944   1400.477518   6649.523830  13477.918109
VL64 -45737.146282  57731.341198 -18984.369716 999999.999999
*  2023  1 21 19 56 30.00000000
PL64  -1123.152621   1573.170118   6588.906250  13478.377755
VL64 -45099.237691  57386.048214 -21423.693845 999999.999999
*  2023  1 21 19 57  0.00000000
PL64  -1257.433458   1744.727827   6521.004945  13478.837519
VL64 -44413.419043  56974.777313 -23839.741187 999999.999999
*  2023  1 21 19 57 30.00000000
PL64  -1389.586244   1914.953018   6445.893738  13479.297225
VL64 -43680.710670  56497.744992 -26229.854462 999999.999999
*  2023  1 21 19 58  0.00000000
PL64  -1519.471901   2083.648825   6363.654386  13479.756753
VL64 -42902.183050  55955.243156 -28591.400847 999999.999999
*  2023  1 21 19 58 30.00000000
PL64  -1646.954640   2250.619374   6274.376505  13480.216406
VL64 -42078.955277  55347.640449 -30921.775469 999999.999999
*  2023  1 21 19 59  0.00000000
PL64  -1771.902097   2415.670010   6178.157479  13480.676358
VL64 -41212.193471  54675.382907 -33218.405113 999999.999999
*  2023  1 21 19 59 30.00000000
PL64  -1894.185477   2578.607536   6075.102358  13481.136549
VL64 -40303.108904  53938.992560 -35478.752761 999999.999999
*  2023  1 21 20  0  0.00000000
PL64  -2013.679680   2739.240425   5965.323746  13481.596524
VL64 -39352.955226  53139.064308 -37700.318555 999999.999999
*  2023  1 21 20  0 30.00000000
PL64  -2130.263433   2897.379050   5848.941694  13482.056094
VL64 -38363.027566  52276.266848 -39880.638387 999999.999999
*  2023  1 21 20  1  0.00000000
PL64  -2243.819407   3052.835900   5726.083589  13482.515758
VL64 -37334.662974  51351.345538 -42017.286479 999999.999999
*  2023  1 21 20  1 30.00000000
PL64  -2354.234351   3205.425820   5596.884030  13482.975529
VL64 -36269.239937  50365.123207 -44107.880884 999999.999999
*  2023  1 21 20  2  0.00000000
PL64  -2461.399205   3354.966234   5461.484691  13483.435714
VL64 -35168.176090  49318.498418 -46150.088978 999999.999999
*  2023  1 21 20  2 30.00000000
PL64  -2565.209219   3501.277377   5320.034166  13483.896562
VL64 -34032.925032  48212.442640 -48141.629596 999999.999999
*  2023  1 21 20  3  0.00000000
PL64  -2665.564055   3644.182501   5172.687812  13484.357288
VL64 -32864.974779  47047.999907 -50080.273396 999999.999999
*  2023  1 21 20  3 30.00000000
PL64  -2762.367889   3783.508104   5019.607599  13484.817672
VL64 -31665.846828  45826.287528 -51963.845785 999999.999999
*  2023  1 21 20  4  0.00000000
PL64  -2855.529510   3919.084144   4860.961927  13485.277732
VL64 -30437.093847  44548.495040 -53790.230938 999999.999999
*  2023  1 21 20  4 30.00000000
PL64  -2944.962407   4050.744252   4696.925457  13485.737596
VL64 -29180.296988  43215.882379 -55557.373993 999999.999999
*  2023  1 21 20  5  0.00000000
PL64  -3030.584855   4178.325945   4527.678920  13486.197441
VL64 -27897.064442  41829.779309 -57263.282247 999999.999999
*  2023  1 21 20  5 30.00000000
PL64  -3112.319992   4301.670834   4353.408928  13486.657418
VL64 -26589.030634  40391.585315 -58906.028128 999999.999999
*  2023  1 21 20  6  0.00000000
PL64  -3190.095896   4420.624831   4174.307774  13487.117508
VL64 -25257.853964  38902.767728 -60483.753206 999999.999999
*  2023  1 21 20  6 30.00000000
PL64  -3263.845651   4535.038348   3990.573220  13487.577461
VL64 -23905.213538  37364.859400 -61994.670292 999999.999999
*  2023  1 21 20  7  0.00000000
PL64  -3333.507410   4644.766492   3802.408278  13488.037267
VL64 -22532.806974  35779.457816 -63437.064802 999999.999999
*  2023  1 21 20  7 30.00000000
PL64  -3399.024441   4749.669260   3610.020995  13488.497083
VL64 -21142.348877  34148.223976 -64809.297470 999999.999999
*  2023  1 21 20  8  0.00000000
PL64  -3460.345181   4849.611724   3413.624219  13488.957032
VL64 -19735.568679  32472.880029 -66109.806922 999999.999999
*  2023  1 21 20  8 30.00000000
PL64  -3517.423273   4944.464210   3213.435362  13489.416927
VL64 -18314.208470  30755.207052 -67337.110886 999999.999999
*  2023  1 21 20  9  0.00000000
PL64  -3570.217605   5034.102475   3009.676163  13489.876694
VL64 -16880.021661  28997.044171 -68489.807691 999999.999999
*  2023  1 21 20  9 30.00000000
PL64  -3618.692339   5118.407879   2802.572443  13490.336443
VL64 -15434.771291  27200.286934 -69566.580447 999999.999999
*  2023  1 21 20 10  0.00000000
PL64  -3662.816937   5197.267547   2592.353836  13490.796069
VL64 -13980.225123  25366.882618 -70566.200397 999999.999999
*  2023  1 21 20 10 30.00000000
PL64  -3702.566163   5270.574522   2379.253539  13491.255673
VL64 -12518.151727  23498.827174 -71487.524603 999999.999999
*  2023  1 21 20 11  0.00000000
PL64  -3737.920090   5338.227903   2163.508045  13491.715238
VL64 -11050.321173  21598.165893 -72329.495485 999999.999999
*  2023  1 21 20 11 30.00000000
PL64  -3768.864103   5400.133003   1945.356891  13492.174510
VL64  -9578.504376  19666.992061 -73091.144646 999999.999999
EOF
